SUOMI NPP               
1 37849U 11061A   26170.94852749  .00000061  00000+0  49843-4 0  9992
2 37849  98.7953 111.8057 0001376   0.3525 359.7652 14.19517898758830
YAOGAN-12               
1 37875U 11066B   26170.95317571  .00004194  00000+0  16255-3 0  9997
2 37875  97.1140 209.3912 0009004 205.1014 154.9789 15.26626381812460
BEIDOU-2 M4             
1 38251U 12018B   26170.26882991 -.00000082  00000+0  00000+0 0  9991
2 38251  55.6560 304.0191 0011331 275.2642  84.5989  1.86229271 95985
ARIRANG-3 (KOMPSAT-3)   
1 38338U 12025B   26170.97522414  .00000332  00000+0  75171-4 0  9997
2 38338  98.1172 128.3870 0006746 102.4230 257.7727 14.62208235751754
METOP-B                 
1 38771U 12049A   26170.93488414  .00000063  00000+0  48821-4 0  9994
2 38771  98.6502 222.3792 0002093  11.9854 348.1373 14.21440570713656
SJ-9A                   
1 38860U 12056A   26170.92620858  .00000703  00000+0  87228-4 0  9995
2 38860  97.6709 142.7786 0024059 247.0594 112.8083 14.85482766699997
COSMOS 2484 (RODNIK-S 6)
1 39059U 13001C   26170.88285670  .00000035  00000+0  18019-3 0  9990
2 39059  82.5005 220.2170 0026769  30.8680 329.3967 12.42939458608894
SARAL                   
1 39086U 13009A   26170.90397002  .00000052  00000+0  35044-4 0  9991
2 39086  98.5558 357.4367 0000628 288.9492  71.1624 14.32856484695995
STRAND-1                
1 39090U 13009E   26170.42314841  .00000193  00000+0  79379-4 0  9998
2 39090  98.3923 350.6024 0007842 217.8573 142.2063 14.37164306697387
BRITE-AUSTRIA           
1 39091U 13009F   26170.29768615  .00000120  00000+0  55501-4 0  9997
2 39091  98.3996 349.6811 0009231 229.4697 130.5686 14.36542792697356
GAOFEN-1                
1 39150U 13018A   26170.97699352  .00000571  00000+0  89024-4 0  9996
2 39150  97.9090 242.9884 0015693 256.4378 103.5084 14.76539715708655
NEE-01 PEGASO           
1 39151U 13018B   26170.34231826  .00002563  00000+0  24786-3 0  9992
2 39151  98.1228 314.5632 0013307 152.2100 207.9832 14.93669357711025
PROBA-V                 
1 39159U 13021A   26170.50883740  .00000042  00000+0  36405-4 0  9992
2 39159  98.3584 149.0009 0005221 117.9671 242.2038 14.23597276681441
ARIRANG-5 (KOMPSAT-5)   
1 39227U 13042A   26170.95949090  .00000583  00000+0  45992-4 0  9992
2 39227  97.6201 357.6210 0005409 113.8593 246.3200 15.04495727704273
GONETS-M 5              
1 39249U 13048A   26170.93230245 -.00000001  00000+0 -79938-4 0  9999
2 39249  82.4833 341.6699 0016223 204.1243 155.9079 12.42891763579229
GONETS-M 7              
1 39251U 13048C   26170.89521029 -.00000005  00000+0 -10536-3 0  9992
2 39251  82.4900 344.6169 0016995 205.6053 154.4187 12.42914561579173
FENGYUN 3C              
1 39260U 13052A   26170.94142701  .00000059  00000+0  51106-4 0  9995
2 39260  98.4987 144.6898 0015083  20.0672 340.1093 14.15755655658958
CASSIOPE                
1 39265U 13055A   26170.91723512  .00046492 -44883-6  50616-3 0  9995
2 39265  80.9139  63.4059 0291843  53.3000 309.4665 15.25425577668086
APRIZESAT 7             
1 39416U 13066A   26170.83736970  .00000738  00000+0  78478-4 0  9993
2 39416  97.7709 124.0192 0035208 200.2744 159.7079 14.91568577681624
ZACUBE-1 (TSHEPISOSAT)  
1 39417U 13066B   26170.94018519  .00002355  00000+0  18525-3 0  9991
2 39417  97.8072 133.2914 0041152 238.1921 121.5293 15.01201080681142
APRIZESAT 8             
1 39425U 13066K   26170.76463374  .00000685  00000+0  80253-4 0  9995
2 39425  97.8220 118.1965 0044354 277.7881  81.8301 14.87656607680054
