OBJECT_NAME,OBJECT_ID,EPOCH,MEAN_MOTION,ECCENTRICITY,INCLINATION,RA_OF_ASC_NODE,ARG_OF_PERICENTER,MEAN_ANOMALY,EPHEMERIS_TYPE,CLASSIFICATION_TYPE,NORAD_CAT_ID,ELEMENT_SET_NO,REV_AT_EPOCH,BSTAR,MEAN_MOTION_DOT,MEAN_MOTION_DDOT
SUOMI NPP,2011-061A,2026-06-19T22:45:52.775136,14.19517898,.00013767,98.7953,111.8057,0.3525,359.7652,0,U,37849,999,75883,.49842861E-4,.61E-6,0
YAOGAN-12,2011-066B,2026-06-19T22:52:34.381344,15.26626381,.00090049,97.1140,209.3912,205.1014,154.9789,0,U,37875,999,81246,.16254518E-3,.4194E-4,0
BEIDOU-2 M4,2012-018B,2026-06-19T06:27:06.904224,1.86229271,.0011331,55.6560,304.0191,275.2642,84.5989,0,U,38251,999,9598,0,-.82E-6,0
ARIRANG-3 (KOMPSAT-3),2012-025B,2026-06-19T23:24:19.365696,14.62208235,.00067466,98.1172,128.3870,102.4230,257.7727,0,U,38338,999,75175,.75171463E-4,.332E-5,0
METOP-B,2012-049A,2026-06-19T22:26:13.989696,14.21440570,.00020934,98.6502,222.3792,11.9854,348.1373,0,U,38771,999,71365,.4882065E-4,.63E-6,0
SJ-9A,2012-056A,2026-06-19T22:13:44.421312,14.85482766,.00240593,97.6709,142.7786,247.0594,112.8083,0,U,38860,999,69999,.87228209E-4,.703E-5,0
COSMOS 2484 (RODNIK-S 6),2013-001C,2026-06-19T21:11:18.818880,12.42939458,.00267696,82.5005,220.2170,30.8680,329.3967,0,U,39059,999,60889,.18019082E-3,.35E-6,0
SARAL,2013-009A,2026-06-19T21:41:43.009728,14.32856484,.00006282,98.5558,357.4367,288.9492,71.1624,0,U,39086,999,69599,.35043564E-4,.52E-6,0
STRAND-1,2013-009E,2026-06-19T10:09:20.022624,14.37164306,.00078423,98.3923,350.6024,217.8573,142.2063,0,U,39090,999,69738,.7937905E-4,.193E-5,0
BRITE-AUSTRIA,2013-009F,2026-06-19T07:08:40.083360,14.36542792,.00092316,98.3996,349.6811,229.4697,130.5686,0,U,39091,999,69735,.5550137E-4,.12E-5,0
GAOFEN-1,2013-018A,2026-06-19T23:26:52.240128,14.76539715,.00156934,97.9090,242.9884,256.4378,103.5084,0,U,39150,999,70865,.89024482E-4,.571E-5,0
NEE-01 PEGASO,2013-018B,2026-06-19T08:12:56.297664,14.93669357,.00133076,98.1228,314.5632,152.2100,207.9832,0,U,39151,999,71102,.24785549E-3,.2563E-4,0
PROBA-V,2013-021A,2026-06-19T12:12:43.551360,14.23597276,.00052215,98.3584,149.0009,117.9671,242.2038,0,U,39159,999,68144,.36405236E-4,.42E-6,0
ARIRANG-5 (KOMPSAT-5),2013-042A,2026-06-19T23:01:40.013760,15.04495727,.00054093,97.6201,357.6210,113.8593,246.3200,0,U,39227,999,70427,.45992424E-4,.583E-5,0
GONETS-M 5,2013-048A,2026-06-19T22:22:30.931680,12.42891763,.00162237,82.4833,341.6699,204.1243,155.9079,0,U,39249,999,57922,-.79937821E-4,-.1E-7,0
GONETS-M 7,2013-048C,2026-06-19T21:29:06.169056,12.42914561,.0016995,82.4900,344.6169,205.6053,154.4187,0,U,39251,999,57917,-.10536234E-3,-.5E-7,0
FENGYUN 3C,2013-052A,2026-06-19T22:35:39.293664,14.15755655,.00150839,98.4987,144.6898,20.0672,340.1093,0,U,39260,999,65895,.51105823E-4,.59E-6,0
CASSIOPE,2013-055A,2026-06-19T22:00:49.114368,15.25425577,.02918431,80.9139,63.4059,53.3000,309.4665,0,U,39265,999,66808,.50615989E-3,.46492E-3,-.448833E-6
APRIZESAT 7,2013-066A,2026-06-19T20:05:48.742080,14.91568577,.0035208,97.7709,124.0192,200.2744,159.7079,0,U,39416,999,68162,.78477645E-4,.738E-5,0
ZACUBE-1 (TSHEPISOSAT),2013-066B,2026-06-19T22:33:52.000416,15.01201080,.00411525,97.8072,133.2914,238.1921,121.5293,0,U,39417,999,68114,.18524965E-3,.2355E-4,0
APRIZESAT 8,2013-066K,2026-06-19T18:21:04.355136,14.87656607,.00443545,97.8220,118.1965,277.7881,81.8301,0,U,39425,999,68005,.8025272E-4,.685E-5,0
